NORAD_CAT_ID,OBJECT_NAME,OBJECT_TYPE,EPOCH,MEAN_MOTION,ECCENTRICITY,INCLINATION,RA_OF_ASC_NODE,ARG_OF_PERICENTER,MEAN_ANOMALY,BSTAR,MEAN_MOTION_DOT,MEAN_MOTION_DDOT,TLE_LINE0,TLE_LINE1,TLE_LINE2,SEMIMAJOR_AXIS,PERIOD,APOGEE,PERIGEE,DECAYED
52837.0,STARLINK-4036,PAYLOAD,2022-09-19 22:00:00,15.08852743,0.0002091,53.2169,320.894,38.514,24.8237,-0.0015879,-0.0002548,0.0,0 STARLINK-4036,1 52837U 22062H   22262.91667824 -.00025480  00000-0 -15879-2 0  9997,2 52837  53.2169 320.8940 0002091  38.5140  24.8237 15.08852743  1305,6917.840999999999,95.437,541.153,538.26,0.0
52837.0,STARLINK-4036,PAYLOAD,2022-09-20 06:00:00,15.088471599999998,0.0002073,53.217,319.3977,39.4334,35.5054,-0.0011413,-0.0001841,0.0,0 STARLINK-4036,1 52837U 22062H   22263.25001157 -.00018410  00000-0 -11413-2 0  9991,2 52837  53.2170 319.3977 0002073  39.4334  35.5054 15.08847160 14593,6917.859,95.437,541.158,538.289,0.0
52837.0,STARLINK-4036,PAYLOAD,2022-09-20 14:00:01,15.08811731,0.0002254,53.217,317.9029,34.934,51.603,0.0033649,0.00053631,0.0,0 STARLINK-4036,1 52837U 22062H   22263.58334491  .00053631  00000-0  33649-2 0  9994,2 52837  53.2170 317.9029 0002254  34.9340  51.6030 15.08811731  1306,6917.967,95.439,541.391,538.2719999999998,0.0
52837.0,STARLINK-4036,PAYLOAD,2022-09-20 22:00:01,15.08844626,0.0002054,53.2172,316.4049,36.481,61.7059,-0.0020334,-0.00032509,0.0,0 STARLINK-4036,1 52837U 22062H   22263.91668981 -.00032509  00000-0 -20334-2 0  9995,2 52837  53.2172 316.4049 0002054  36.4810  61.7059 15.08844626  1303,6917.866,95.437,541.1519999999998,538.31,0.0
52837.0,STARLINK-4036,PAYLOAD,2022-09-21 08:00:01,15.08837036,0.0002121999999999,53.2171,314.5353,35.9666,166.6368,-0.0011208,-0.00018081,0.0,0 STARLINK-4036,1 52837U 22062H   22264.33334491 -.00018081  00000-0 -11208-2 0  9997,2 52837  53.2171 314.5353 0002122  35.9666 166.6368 15.08837036 14756,6917.889,95.438,541.222,538.286,0.0
52837.0,STARLINK-4036,PAYLOAD,2022-09-21 22:00:00,15.08827527,0.0002043,53.217,311.916,36.2786,96.6023,0.0012921,0.00020329,0.0,0 STARLINK-4036,1 52837U 22062H   22264.91667824  .00020329  00000-0  12921-2 0  9999,2 52837  53.2170 311.9160 0002043  36.2786  96.6023 15.08827527  1302,6917.919,95.438,541.197,538.37,0.0
52837.0,STARLINK-4036,PAYLOAD,2022-09-22 06:00:00,15.08869367,0.0002065,53.217,310.4201,37.1868,107.2744,-0.0033899,-0.0005388,0.0,0 STARLINK-4036,1 52837U 22062H   22265.25001157 -.00053880  00000-0 -33899-2 0  9995,2 52837  53.2170 310.4201 0002065  37.1868 107.2744 15.08869367 14892,6917.791,95.436,541.0840000000002,538.227,0.0
52837.0,STARLINK-4036,PAYLOAD,2022-09-22 14:00:01,15.08803447,0.0002203,53.2166,308.925,31.5871,124.4879,0.0025163,0.00039947,0.0,0 STARLINK-4036,1 52837U 22062H   22265.58334491  .00039947  00000-0  25163-2 0  9992,2 52837  53.2166 308.9250 0002203  31.5871 124.4879 15.08803447  1308,6917.9919999999975,95.44,541.381,538.3330000000002,0.0
52837.0,STARLINK-4036,PAYLOAD,2022-09-22 22:00:00,15.08811741,0.0001986,53.2165,307.427,34.6079,133.042,0.0016832999999999,0.00026583,0.0,0 STARLINK-4036,1 52837U 22062H   22265.91667824  .00026583  00000-0  16833-2 0  9994,2 52837  53.2165 307.4270 0001986  34.6079 133.0420 15.08811741 14997,6917.967,95.439,541.206,538.4580000000002,0.0
52837.0,STARLINK-4036,PAYLOAD,2022-09-23 14:00:01,15.08816262,0.0002226,53.2159,304.4361,32.9631,157.8507,0.002944,0.00046848,0.0,0 STARLINK-4036,1 52837U 22062H   22266.58334491  .00046848  00000-0  29440-2 0  9993,2 52837  53.2159 304.4361 0002226  32.9631 157.8507 15.08816262  1305,6917.953,95.439,541.3580000000002,538.278,0.0
52837.0,STARLINK-4036,PAYLOAD,2022-09-23 22:00:00,15.088266199999998,0.0002028,53.2156,302.938,36.5574,165.8513,0.0022091999999999,0.00035034,0.0,0 STARLINK-4036,1 52837U 22062H   22266.91667824  .00035034  00000-0  22092-2 0  9990,2 52837  53.2156 302.9380 0002028  36.5574 165.8513 15.08826620 15144,6917.920999999999,95.438,541.189,538.383,0.0
52837.0,STARLINK-4036,PAYLOAD,2022-09-24 14:00:01,15.08849281,0.0002258,53.2151,299.9468,34.1113,191.5695,0.0012419,0.00019537,0.0,0 STARLINK-4036,1 52837U 22062H   22267.58335648  .00019537  00000-0  12419-2 0  9992,2 52837  53.2151 299.9468 0002258  34.1113 191.5695 15.08849281 15245,6917.852,95.437,541.279,538.155,0.0
52837.0,STARLINK-4036,PAYLOAD,2022-09-24 22:00:00,15.088254199999998,0.0002041,53.215,298.4486,35.9078,201.3377,0.0017915,0.00028328,0.0,0 STARLINK-4036,1 52837U 22062H   22267.91667824  .00028328  00000-0  17915-2 0  9997,2 52837  53.2150 298.4486 0002041  35.9078 201.3377 15.08825420  1305,6917.925,95.438,541.202,538.378,0.0
52837.0,STARLINK-4036,PAYLOAD,2022-09-25 06:00:00,15.08863895,0.0002098,53.2151,296.9529,35.3579,213.4749,-0.0040834,-0.00064736,0.0,0 STARLINK-4036,1 52837U 22062H   22268.25001157 -.00064736  00000-0 -40834-2 0  9997,2 52837  53.2151 296.9529 0002098  35.3579 213.4749 15.08863895 15343,6917.807,95.436,541.124,538.221,0.0
52837.0,STARLINK-4036,PAYLOAD,2022-09-25 14:00:01,15.08835483,0.0002269,53.2156,295.4515,31.8205,228.6081,-0.0016283,-0.00026107,0.0,0 STARLINK-4036,1 52837U 22062H   22268.58334491 -.00026107  00000-0 -16283-2 0  9994,2 52837  53.2156 295.4515 0002269  31.8205 228.6081 15.08835483  1304,6917.894,95.438,541.3290000000002,538.19,0.0
52837.0,STARLINK-4036,PAYLOAD,2022-09-25 22:00:01,15.08810499,0.0002046999999999,53.2147,293.9584,34.3996,237.6841,0.003025,0.00048146,0.0,0 STARLINK-4036,1 52837U 22062H   22268.91668981  .00048146  00000-0  30250-2 0  9990,2 52837  53.2147 293.9584 0002047  34.3996 237.6841 15.08810499 15446,6917.971,95.439,541.252,538.419,0.0
52837.0,STARLINK-4036,PAYLOAD,2022-09-26 00:00:00,15.08818039,0.0002026999999999,53.2149,293.5817,36.1442,328.7712,0.0026138999999999,0.00041533,0.0,0 STARLINK-4036,1 52837U 22062H   22269.00001157  .00041533  00000-0  26139-2 0  9991,2 52837  53.2149 293.5817 0002027  36.1442 328.7712 15.08818039  1304,6917.948,95.439,541.215,538.41,0.0
52837.0,STARLINK-4036,PAYLOAD,2022-09-26 10:00:00,15.08808599,0.0002272,53.2148,291.716,31.5592,77.8395,0.00048104,7.369e-05,0.0,0 STARLINK-4036,1 52837U 22062H   22269.41667824  .00007369  00000-0  48104-3 0  9991,2 52837  53.2148 291.7160 0002272  31.5592  77.8395 15.08808599 15529,6917.976,95.44,541.413,538.27,0.0
52837.0,STARLINK-4036,PAYLOAD,2022-09-26 14:00:01,15.08809783,0.0002282,53.2146,290.9676,29.4554,265.7231,0.0012637,0.00019865,0.0,0 STARLINK-4036,1 52837U 22062H   22269.58334491  .00019865  00000-0  12637-2 0  9995,2 52837  53.2146 290.9676 0002282  29.4554 265.7231 15.08809783  1309,6917.973000000001,95.439,541.4159999999998,538.259,0.0
52837.0,STARLINK-4036,PAYLOAD,2022-09-27 00:00:00,15.08807029,0.0002124,53.2149,289.095,34.9757,4.6694,0.0028156999999999,0.00044769,0.0,0 STARLINK-4036,1 52837U 22062H   22270.00001157  .00044769  00000-0  28157-2 0  9999,2 52837  53.2149 289.0950 0002124  34.9757   4.6694 15.08807029  1301,6917.981,95.44,541.316,538.377,0.0
52837.0,STARLINK-4036,PAYLOAD,2022-09-27 14:00:01,15.08839644,0.0002387,53.2149,286.4778,31.4282,298.4834,0.00099812,0.00015633,0.0,0 STARLINK-4036,1 52837U 22062H   22270.58334491  .00015633  00000-0  99812-3 0  9997,2 52837  53.2149 286.4778 0002387  31.4282 298.4834 15.08839644  1303,6917.880999999999,95.438,541.398,538.095,0.0
52837.0,STARLINK-4036,PAYLOAD,2022-09-27 22:00:01,15.08826591,0.0002206,53.2153,284.9795,35.9871,305.5995,0.0037348,0.00059634,0.0,0 STARLINK-4036,1 52837U 22062H   22270.91668981  .00059634  00000-0  37348-2 0  9992,2 52837  53.2153 284.9795 0002206  35.9871 305.5995 15.08826591  1308,6917.920999999999,95.438,541.312,538.26,0.0
52837.0,STARLINK-4036,PAYLOAD,2022-09-28 14:00:01,15.08889312,0.0002392,53.2154,281.9882,30.9679,333.785,-0.0040832,-0.00064779,0.0,0 STARLINK-4036,1 52837U 22062H   22271.58334491 -.00064779  00000-0 -40832-2 0  9992,2 52837  53.2154 281.9882 0002392  30.9679 333.7850 15.08889312  1303,6917.73,95.434,541.249,537.94,0.0
52837.0,STARLINK-4036,PAYLOAD,2022-09-28 22:00:00,15.08798656,0.0002117,53.2157,280.4898,32.861999999999995,343.5112,0.0027096,0.00043051,0.0,0 STARLINK-4036,1 52837U 22062H   22271.91667824  .00043051  00000-0  27096-2 0  9993,2 52837  53.2157 280.4898 0002117  32.8620 343.5112 15.08798656  1309,6918.007,95.44,541.336,538.4069999999998,0.0
52837.0,STARLINK-4036,PAYLOAD,2022-09-29 14:00:01,15.08838009,0.0002355,53.2157,277.4984,30.2117,9.3024,-0.00021093,-3.644e-05,0.0,0 STARLINK-4036,1 52837U 22062H   22272.58334491 -.00003644  00000-0 -21093-3 0  9996,2 52837  53.2157 277.4984 0002355  30.2117   9.3024 15.08838009  1304,6917.886,95.438,541.381,538.122,0.0
52837.0,STARLINK-4036,PAYLOAD,2022-09-29 22:00:00,15.0881642,0.0002133999999999,53.2159,276.0005,34.7946,16.319000000000006,0.0033885999999999,0.00054021,0.0,0 STARLINK-4036,1 52837U 22062H   22272.91667824  .00054021  00000-0  33886-2 0  9997,2 52837  53.2159 276.0005 0002134  34.7946  16.3190 15.08816420  1304,6917.9519999999975,95.439,541.294,538.341,0.0
52837.0,STARLINK-4036,PAYLOAD,2022-09-30 14:00:01,15.08864705,0.0002318,53.2157,273.009,31.21,43.101000000000006,-0.0027957,-0.00044539,0.0,0 STARLINK-4036,1 52837U 22062H   22273.58334491 -.00044539  00000-0 -27957-2 0  9999,2 52837  53.2157 273.0090 0002318  31.2100  43.1010 15.08864705  1309,6917.805,95.436,541.273,538.066,0.0
52837.0,STARLINK-4036,PAYLOAD,2022-09-30 16:00:00,15.08858451,0.0002229,53.2158,272.6345,32.4273,134.7878,-0.0026468,-0.00042189,0.0,0 STARLINK-4036,1 52837U 22062H   22273.66667824 -.00042189  00000-0 -26468-2 0  9992,2 52837  53.2158 272.6345 0002229  32.4273 134.7878 15.08858451 16163,6917.824000000001,95.436,541.231,538.1469999999998,0.0
52837.0,STARLINK-4036,PAYLOAD,2022-09-30 22:00:00,15.08819981,0.0002076,53.2158,271.5112,34.9485,50.9757,0.0033379,0.00053207,0.0,0 STARLINK-4036,1 52837U 22062H   22273.91667824  .00053207  00000-0  33379-2 0  9990,2 52837  53.2158 271.5112 0002076  34.9485  50.9757 15.08819981  1305,6917.941999999999,95.439,541.243,538.37,0.0
